{"type": "FeatureCollection", "features": [ {"type": "Feature", "properties": {"norad_id": 66838, "name": "STARLINK-35886", "group": "last-30-days", "lat": -61.23592995366917, "lon": 39.19672409911451, "alt_km": 413.9877954116846, "timestamp": "2025-12-20T07:33:49.514722+00:00", "meta": {"OBJECT_NAME": "STARLINK-35886", "OBJECT_ID": "2025-280T", "EPOCH": "2025-12-19T22:00:01.999584", "MEAN_MOTION": 15.52475078, "ECCENTRICITY": 0.00029284, "INCLINATION": 69.9993, "RA_OF_ASC_NODE": 178.7169, "ARG_OF_PERICENTER": 271.2962, "MEAN_ANOMALY": 271.1849, "EPHEMERIS_TYPE": 0, "CLASSIFICATION_TYPE": "U", "NORAD_CAT_ID": 66838, "ELEMENT_SET_NO": 999, "REV_AT_EPOCH": 405, "BSTAR": 0.0015507136, "MEAN_MOTION_DOT": 0.00096241, "MEAN_MOTION_DDOT": 0}, "tle": {"line1": "1 66838U 25280T   25353.91668981  .00096241  00000+0  15507-2 0  9995", "line2": "2 66838  69.9993 178.7169 0002928 271.2962 271.1849 15.52475078  4052"}}, "geometry": {"type": "Point", "coordinates": [39.19672409911451, -61.23592995366917]}}, {"type": "Feature", "properties": {"norad_id": 66839, "name": "STARLINK-35717", "group": "last-30-days", "lat": -59.86119827941319, "lon": 36.48509988583424, "alt_km": 413.90040549782043, "timestamp": "2025-12-20T07:33:49.514734+00:00", "meta": {"OBJECT_NAME": "STARLINK-35717", "OBJECT_ID": "2025-280U", "EPOCH": "2025-12-19T22:00:01.999584", "MEAN_MOTION": 15.52473306, "ECCENTRICITY": 0.00030355, "INCLINATION": 69.9992, "RA_OF_ASC_NODE": 178.719, "ARG_OF_PERICENTER": 269.2891, "MEAN_ANOMALY": 271.2749, "EPHEMERIS_TYPE": 0, "CLASSIFICATION_TYPE": "U", "NORAD_CAT_ID": 66839, "ELEMENT_SET_NO": 999, "REV_AT_EPOCH": 405, "BSTAR": 0.001567271, "MEAN_MOTION_DOT": 0.00097278, "MEAN_MOTION_DDOT": 0}, "tle": {"line1": "1 66839U 25280U   25353.91668981  .00097278  00000+0  15673-2 0  9991", "line2": "2 66839  69.9992 178.7190 0003035 269.2891 271.2749 15.52473306  4056"}}, "geometry": {"type": "Point", "coordinates": [36.48509988583424, -59.86119827941319]}}, {"type": "Feature", "properties": {"norad_id": 66840, "name": "STARLINK-35837", "group": "last-30-days", "lat": -62.54856488714161, "lon": 42.14369494801468, "alt_km": 413.99775698127996, "timestamp": "2025-12-20T07:33:49.514744+00:00", "meta": {"OBJECT_NAME": "STARLINK-35837", "OBJECT_ID": "2025-280V", "EPOCH": "2025-12-19T22:00:01.999584", "MEAN_MOTION": 15.52474347, "ECCENTRICITY": 0.00028986, "INCLINATION": 69.9994, "RA_OF_ASC_NODE": 178.7149, "ARG_OF_PERICENTER": 270.9341, "MEAN_ANOMALY": 273.4611, "EPHEMERIS_TYPE": 0, "CLASSIFICATION_TYPE": "U", "NORAD_CAT_ID": 66840, "ELEMENT_SET_NO": 999, "REV_AT_EPOCH": 405, "BSTAR": 0.0015689404, "MEAN_MOTION_DOT": 0.00097385, "MEAN_MOTION_DDOT": 0}, "tle": {"line1": "1 66840U 25280V   25353.91668981  .00097385  00000+0  15689-2 0  9999", "line2": "2 66840  69.9994 178.7149 0002898 270.9341 273.4611 15.52474347  4057"}}, "geometry": {"type": "Point", "coordinates": [42.14369494801468, -62.54856488714161]}}, {"type": "Feature", "properties": {"norad_id": 66841, "name": "STARLINK-35715", "group": "last-30-days", "lat": -63.79484528691323, "lon": 45.35928356584476, "alt_km": 413.93044207583716, "timestamp": "2025-12-20T07:33:49.514754+00:00", "meta": {"OBJECT_NAME": "STARLINK-35715", "OBJECT_ID": "2025-280W", "EPOCH": "2025-12-19T22:00:01.999584", "MEAN_MOTION": 15.52473845, "ECCENTRICITY": 0.00029778, "INCLINATION": 69.9994, "RA_OF_ASC_NODE": 178.7127, "ARG_OF_PERICENTER": 269.4437, "MEAN_ANOMALY": 276.8684, "EPHEMERIS_TYPE": 0, "CLASSIFICATION_TYPE": "U", "NORAD_CAT_ID": 66841, "ELEMENT_SET_NO": 999, "REV_AT_EPOCH": 405, "BSTAR": 0.0015570931, "MEAN_MOTION_DOT": 0.00096639, "MEAN_MOTION_DDOT": 0}, "tle": {"line1": "1 66841U 25280W   25353.91668981  .00096639  00000+0  15571-2 0  9991", "line2": "2 66841  69.9994 178.7127 0002977 269.4437 276.8684 15.52473845  4050"}}, "geometry": {"type": "Point", "coordinates": [45.35928356584476, -63.79484528691323]}}, {"type": "Feature", "properties": {"norad_id": 66842, "name": "STARLINK-35769", "group": "last-30-days", "lat": -64.96821552194628, "lon": 48.878592740390836, "alt_km": 413.88560229702216, "timestamp": "2025-12-20T07:33:49.514763+00:00", "meta": {"OBJECT_NAME": "STARLINK-35769", "OBJECT_ID": "2025-280X", "EPOCH": "2025-12-19T22:00:01.999584", "MEAN_MOTION": 15.52477579, "ECCENTRICITY": 0.00030529, "INCLINATION": 69.9994, "RA_OF_ASC_NODE": 178.7097, "ARG_OF_PERICENTER": 271.6627, "MEAN_ANOMALY": 276.5701, "EPHEMERIS_TYPE": 0, "CLASSIFICATION_TYPE": "U", "NORAD_CAT_ID": 66842, "ELEMENT_SET_NO": 999, "REV_AT_EPOCH": 405, "BSTAR": 0.001574615, "MEAN_MOTION_DOT": 0.00097756, "MEAN_MOTION_DDOT": 0}, "tle": {"line1": "1 66842U 25280X   25353.91668981  .00097756  00000+0  15746-2 0  9997", "line2": "2 66842  69.9994 178.7097 0003052 271.6627 276.5701 15.52477579  4053"}}, "geometry": {"type": "Point", "coordinates": [48.878592740390836, -64.96821552194628]}}, {"type": "Feature", "properties": {"norad_id": 66843, "name": "STARLINK-35997", "group": "last-30-days", "lat": -67.01327635201929, "lon": 56.78039436576006, "alt_km": 413.9846690324148, "timestamp": "2025-12-20T07:33:49.514775+00:00", "meta": {"OBJECT_NAME": "STARLINK-35997", "OBJECT_ID": "2025-280Y", "EPOCH": "2025-12-19T22:00:01.999584", "MEAN_MOTION": 15.52470861, "ECCENTRICITY": 0.00029371, "INCLINATION": 69.9995, "RA_OF_ASC_NODE": 178.7058, "ARG_OF_PERICENTER": 271.5258, "MEAN_ANOMALY": 280.534, "EPHEMERIS_TYPE": 0, "CLASSIFICATION_TYPE": "U", "NORAD_CAT_ID": 66843, "ELEMENT_SET_NO": 999, "REV_AT_EPOCH": 405, "BSTAR": 0.0014622387, "MEAN_MOTION_DOT": 0.00090663, "MEAN_MOTION_DDOT": 0}, "tle": {"line1": "1 66843U 25280Y   25353.91668981  .00090663  00000+0  14622-2 0  9990", "line2": "2 66843  69.9995 178.7058 0002937 271.5258 280.5340 15.52470861  4053"}}, "geometry": {"type": "Point", "coordinates": [56.78039436576006, -67.01327635201929]}}, {"type": "Feature", "properties": {"norad_id": 66844, "name": "STARLINK-36073", "group": "last-30-days", "lat": -66.01601971047428, "lon": 52.57391985135494, "alt_km": 413.8786365378892, "timestamp": "2025-12-20T07:33:49.514787+00:00", "meta": {"OBJECT_NAME": "STARLINK-36073", "OBJECT_ID": "2025-280Z", "EPOCH": "2025-12-19T22:00:01.999584", "MEAN_MOTION": 15.52449432, "ECCENTRICITY": 0.0003189, "INCLINATION": 69.9994, "RA_OF_ASC_NODE": 178.708, "ARG_OF_PERICENTER": 270.2006, "MEAN_ANOMALY": 279.9368, "EPHEMERIS_TYPE": 0, "CLASSIFICATION_TYPE": "U", "NORAD_CAT_ID": 66844, "ELEMENT_SET_NO": 999, "REV_AT_EPOCH": 405, "BSTAR": 0.0014368469, "MEAN_MOTION_DOT": 0.00089001, "MEAN_MOTION_DDOT": 0}, "tle": {"line1": "1 66844U 25280Z   25353.91668981  .00089001  00000+0  14368-2 0  9992", "line2": "2 66844  69.9994 178.7080 0003189 270.2006 279.9368 15.52449432  4057"}}, "geometry": {"type": "Point", "coordinates": [52.57391985135494, -66.01601971047428]}}, {"type": "Feature", "properties": {"norad_id": 66845, "name": "STARLINK-36068", "group": "last-30-days", "lat": -69.1959167724302, "lon": 71.07752804237431, "alt_km": 413.85036904923527, "timestamp": "2025-12-20T07:33:49.514797+00:00", "meta": {"OBJECT_NAME": "STARLINK-36068", "OBJECT_ID": "2025-280AA", "EPOCH": "2025-12-19T22:00:01.999584", "MEAN_MOTION": 15.52472446, "ECCENTRICITY": 0.00031033, "INCLINATION": 69.9994, "RA_OF_ASC_NODE": 178.6984, "ARG_OF_PERICENTER": 271.2722, "MEAN_ANOMALY": 286.5406, "EPHEMERIS_TYPE": 0, "CLASSIFICATION_TYPE": "U", "NORAD_CAT_ID": 66845, "ELEMENT_SET_NO": 999, "REV_AT_EPOCH": 405, "BSTAR": 0.001493701, "MEAN_MOTION_DOT": 0.00092647, "MEAN_MOTION_DDOT": 0}, "tle": {"line1": "1 66845U 25280AA  25353.91668981  .00092647  00000+0  14937-2 0  9995", "line2": "2 66845  69.9994 178.6984 0003103 271.2722 286.5406 15.52472446  4050"}}, "geometry": {"type": "Point", "coordinates": [71.07752804237431, -69.1959167724302]}}, {"type": "Feature", "properties": {"norad_id": 66846, "name": "STARLINK-36055", "group": "last-30-days", "lat": -67.88217405178275, "lon": 61.2780081564569, "alt_km": 413.85688887910146, "timestamp": "2025-12-20T07:33:49.514807+00:00", "meta": {"OBJECT_NAME": "STARLINK-36055", "OBJECT_ID": "2025-280AB", "EPOCH": "2025-12-19T22:00:01.999584", "MEAN_MOTION": 15.52475431, "ECCENTRICITY": 0.00030694, "INCLINATION": 69.9993, "RA_OF_ASC_NODE": 178.7024, "ARG_OF_PERICENTER": 270.1614, "MEAN_ANOMALY": 283.8232, "EPHEMERIS_TYPE": 0, "CLASSIFICATION_TYPE": "U", "NORAD_CAT_ID": 66846, "ELEMENT_SET_NO": 999, "REV_AT_EPOCH": 405, "BSTAR": 0.0015552107, "MEAN_MOTION_DOT": 0.00096527, "MEAN_MOTION_DDOT": 0}, "tle": {"line1": "1 66846U 25280AB  25353.91668981  .00096527  00000+0  15552-2 0  9991", "line2": "2 66846  69.9993 178.7024 0003069 270.1614 283.8232 15.52475431  4059"}}, "geometry": {"type": "Point", "coordinates": [61.2780081564569, -67.88217405178275]}}, {"type": "Feature", "properties": {"norad_id": 66847, "name": "STARLINK-36061", "group": "last-30-days", "lat": -68.61148038408457, "lon": 66.04410011831114, "alt_km": 413.92518685579034, "timestamp": "2025-12-20T07:33:49.514817+00:00", "meta": {"OBJECT_NAME": "STARLINK-36061", "OBJECT_ID": "2025-280AC", "EPOCH": "2025-12-19T22:00:01.999584", "MEAN_MOTION": 15.52475395, "ECCENTRICITY": 0.00029773, "INCLINATION": 69.9992, "RA_OF_ASC_NODE": 178.7006, "ARG_OF_PERICENTER": 271.0816, "MEAN_ANOMALY": 284.8188, "EPHEMERIS_TYPE": 0, "CLASSIFICATION_TYPE": "U", "NORAD_CAT_ID": 66847, "ELEMENT_SET_NO": 999, "REV_AT_EPOCH": 400, "BSTAR": 0.0015203844, "MEAN_MOTION_DOT": 0.00094334, "MEAN_MOTION_DDOT": 0}, "tle": {"line1": "1 66847U 25280AC  25353.91668981  .00094334  00000+0  15204-2 0  9990", "line2": "2 66847  69.9992 178.7006 0002977 271.0816 284.8188 15.52475395  4005"}}, "geometry": {"type": "Point", "coordinates": [66.04410011831114, -68.61148038408457]}}]}